{
  "type": "FeatureCollection",
  "features": [
    {
      "type": "Feature",
      "properties": {
        "norad_id": 44333,
        "name": "AT&T T-16",
        "group": "intelsat",
        "lat": 0.03421548291053379,
        "lon": 152.02176659320145,
        "alt_km": 35783.0988938954,
        "timestamp": "2025-12-26T10:30:49.927516+00:00",
        "meta_object_name": "AT&T T-16",
        "meta_object_id": "2019-034A",
        "meta_epoch": "2025-12-25T10:42:38.666304",
        "meta_mean_motion": 1.00270684,
        "meta_eccentricity": 7.98e-05,
        "meta_inclination": 0.0229,
        "meta_ra_of_asc_node": 69.9127,
        "meta_arg_of_pericenter": 71.5572,
        "meta_mean_anomaly": 12.5365,
        "meta_ephemeris_type": 0,
        "meta_classification_type": "U",
        "meta_norad_cat_id": 44333,
        "meta_element_set_no": 999,
        "meta_rev_at_epoch": 2389,
        "meta_bstar": 0,
        "meta_mean_motion_dot": -9.4e-07,
        "meta_mean_motion_ddot": 0,
        "tle_line1": "1 44333U 19034A   25359.44628086 -.00000094  00000+0  00000+0 0  9998",
        "tle_line2": "2 44333   0.0229  69.9127 0000798  71.5572  12.5365  1.00270684 23899"
      },
      "geometry": {
        "type": "Point",
        "coordinates": [
          152.02176659320145,
          0.03421548291053379
        ]
      }
    },
    {
      "type": "Feature",
      "properties": {
        "norad_id": 44476,
        "name": "INTELSAT 39 (IS-39)",
        "group": "intelsat",
        "lat": -0.02471545666888165,
        "lon": -45.16256810701061,
        "alt_km": 35791.143885485326,
        "timestamp": "2025-12-26T10:30:49.927528+00:00",
        "meta_object_name": "INTELSAT 39 (IS-39)",
        "meta_object_id": "2019-049B",
        "meta_epoch": "2025-12-26T00:53:38.609088",
        "meta_mean_motion": 1.00269924,
        "meta_eccentricity": 0.0001184,
        "meta_inclination": 0.0147,
        "meta_ra_of_asc_node": 357.7695,
        "meta_arg_of_pericenter": 160.9014,
        "meta_mean_anomaly": 11.4786,
        "meta_ephemeris_type": 0,
        "meta_classification_type": "U",
        "meta_norad_cat_id": 44476,
        "meta_element_set_no": 999,
        "meta_rev_at_epoch": 2339,
        "meta_bstar": 0,
        "meta_mean_motion_dot": 5.5e-07,
        "meta_mean_motion_ddot": 0,
        "tle_line1": "1 44476U 19049B   25360.03725242  .00000055  00000+0  00000+0 0  9997",
        "tle_line2": "2 44476   0.0147 357.7695 0001184 160.9014  11.4786  1.00269924 23393"
      },
      "geometry": {
        "type": "Point",
        "coordinates": [
          -45.16256810701061,
          -0.02471545666888165
        ]
      }
    },
    {
      "type": "Feature",
      "properties": {
        "norad_id": 46114,
        "name": "GALAXY 30 (G-30)",
        "group": "intelsat",
        "lat": 0.02702581834152119,
        "lon": 127.86526676368985,
        "alt_km": 35794.00273324178,
        "timestamp": "2025-12-26T10:30:49.927539+00:00",
        "meta_object_name": "GALAXY 30 (G-30)",
        "meta_object_id": "2020-056C",
        "meta_epoch": "2025-12-26T04:39:38.472192",
        "meta_mean_motion": 1.00271277,
        "meta_eccentricity": 0.0002215,
        "meta_inclination": 0.0193,
        "meta_ra_of_asc_node": 347.0172,
        "meta_arg_of_pericenter": 287.0736,
        "meta_mean_anomaly": 125.7581,
        "meta_ephemeris_type": 0,
        "meta_classification_type": "U",
        "meta_norad_cat_id": 46114,
        "meta_element_set_no": 999,
        "meta_rev_at_epoch": 1955,
        "meta_bstar": 0,
        "meta_mean_motion_dot": 5.9e-07,
        "meta_mean_motion_ddot": 0,
        "tle_line1": "1 46114U 20056C   25360.19419528  .00000059  00000+0  00000+0 0  9996",
        "tle_line2": "2 46114   0.0193 347.0172 0002215 287.0736 125.7581  1.00271277 19554"
      },
      "geometry": {
        "type": "Point",
        "coordinates": [
          127.86526676368985,
          0.02702581834152119
        ]
      }
    },
    {
      "type": "Feature",
      "properties": {
        "norad_id": 54026,
        "name": "GALAXY 33 (G-33)",
        "group": "intelsat",
        "lat": 0.013585498453149315,
        "lon": 119.88663747144643,
        "alt_km": 35791.51768484929,
        "timestamp": "2025-12-26T10:30:49.927567+00:00",
        "meta_object_name": "GALAXY 33 (G-33)",
        "meta_object_id": "2022-128A",
        "meta_epoch": "2025-12-24T04:31:51.326400",
        "meta_mean_motion": 1.00272122,
        "meta_eccentricity": 0.0001643,
        "meta_inclination": 0.0126,
        "meta_ra_of_asc_node": 315.9231,
        "meta_arg_of_pericenter": 309.5058,
        "meta_mean_anomaly": 122.5078,
        "meta_ephemeris_type": 0,
        "meta_classification_type": "U",
        "meta_norad_cat_id": 54026,
        "meta_element_set_no": 999,
        "meta_rev_at_epoch": 1198,
        "meta_bstar": 0,
        "meta_mean_motion_dot": 1e-06,
        "meta_mean_motion_ddot": 0,
        "tle_line1": "1 54026U 22128A   25358.18878850  .00000100  00000+0  00000+0 0  9999",
        "tle_line2": "2 54026   0.0126 315.9231 0001643 309.5058 122.5078  1.00272122 11987"
      },
      "geometry": {
        "type": "Point",
        "coordinates": [
          119.88663747144643,
          0.013585498453149315
        ]
      }
    },
    {
      "type": "Feature",
      "properties": {
        "norad_id": 54027,
        "name": "GALAXY 34 (G-34)",
        "group": "intelsat",
        "lat": 0.03854207102052125,
        "lon": 123.91320276837122,
        "alt_km": 35792.63402510642,
        "timestamp": "2025-12-26T10:30:49.927580+00:00",
        "meta_object_name": "GALAXY 34 (G-34)",
        "meta_object_id": "2022-128B",
        "meta_epoch": "2025-12-26T01:59:13.756704",
        "meta_mean_motion": 1.00270241,
        "meta_eccentricity": 0.0001816,
        "meta_inclination": 0.0226,
        "meta_ra_of_asc_node": 10.2564,
        "meta_arg_of_pericenter": 256.7265,
        "meta_mean_anomaly": 88.7009,
        "meta_ephemeris_type": 0,
        "meta_classification_type": "U",
        "meta_norad_cat_id": 54027,
        "meta_element_set_no": 999,
        "meta_rev_at_epoch": 1217,
        "meta_bstar": 0,
        "meta_mean_motion_dot": 0,
        "meta_mean_motion_ddot": 0,
        "tle_line1": "1 54027U 22128B   25360.08279811  .00000000  00000+0  00000+0 0  9993",
        "tle_line2": "2 54027   0.0226  10.2564 0001816 256.7265  88.7009  1.00270241 12177"
      },
      "geometry": {
        "type": "Point",
        "coordinates": [
          123.91320276837122,
          0.03854207102052125
        ]
      }
    },
    {
      "type": "Feature",
      "properties": {
        "norad_id": 54243,
        "name": "GALAXY 31 (G-31)",
        "group": "intelsat",
        "lat": 0.01884550254878922,
        "lon": 131.8718257125609,
        "alt_km": 35792.89118220718,
        "timestamp": "2025-12-26T10:30:49.927592+00:00",
        "meta_object_name": "GALAXY 31 (G-31)",
        "meta_object_id": "2022-153A",
        "meta_epoch": "2025-12-26T04:11:05.407296",
        "meta_mean_motion": 1.00271144,
        "meta_eccentricity": 0.0001759,
        "meta_inclination": 0.0043,
        "meta_ra_of_asc_node": 1.5131,
        "meta_arg_of_pericenter": 283.6063,
        "meta_mean_anomaly": 111.5738,
        "meta_ephemeris_type": 0,
        "meta_classification_type": "U",
        "meta_norad_cat_id": 54243,
        "meta_element_set_no": 999,
        "meta_rev_at_epoch": 539,
        "meta_bstar": 0,
        "meta_mean_motion_dot": 3.5e-07,
        "meta_mean_motion_ddot": 0,
        "tle_line1": "1 54243U 22153A   25360.17436814  .00000035  00000+0  00000+0 0  9997",
        "tle_line2": "2 54243   0.0043   1.5131 0001759 283.6063 111.5738  1.00271144  5391"
      },
      "geometry": {
        "type": "Point",
        "coordinates": [
          131.8718257125609,
          0.01884550254878922
        ]
      }
    },
    {
      "type": "Feature",
      "properties": {
        "norad_id": 54244,
        "name": "GALAXY 32 (G-32)",
        "group": "intelsat",
        "lat": 0.016851834435837754,
        "lon": 161.88001396233045,
        "alt_km": 35793.50734423714,
        "timestamp": "2025-12-26T10:30:49.927604+00:00",
        "meta_object_name": "GALAXY 32 (G-32)",
        "meta_object_id": "2022-153B",
        "meta_epoch": "2025-12-24T22:56:22.028928",
        "meta_mean_motion": 1.00272509,
        "meta_eccentricity": 0.0001992,
        "meta_inclination": 0.0091,
        "meta_ra_of_asc_node": 20.8495,
        "meta_arg_of_pericenter": 295.2988,
        "meta_mean_anomaly": 30.6679,
        "meta_ephemeris_type": 0,
        "meta_classification_type": "U",
        "meta_norad_cat_id": 54244,
        "meta_element_set_no": 999,
        "meta_rev_at_epoch": 1139,
        "meta_bstar": 0,
        "meta_mean_motion_dot": -1.53e-06,
        "meta_mean_motion_ddot": 0,
        "tle_line1": "1 54244U 22153B   25358.95581052 -.00000153  00000+0  00000+0 0  9998",
        "tle_line2": "2 54244   0.0091  20.8495 0001992 295.2988  30.6679  1.00272509 11394"
      },
      "geometry": {
        "type": "Point",
        "coordinates": [
          161.88001396233045,
          0.016851834435837754
        ]
      }
    }
  ]
}